      2.10          N: GNSS NAV DATA                        RINEX VERSION / TYPE
fic2rin                                 05/31/2022 00:17:38 PGM / RUN BY / DATE
                                                            END OF HEADER
8  22  5 30  1 59 44.0 -.700247474015D-04 -.147792889038D-11  .000000000000D+00
     .750000000000D+02  .274375000000D+02  .461697802995D-08  .161843692991D+01
     .140070915222D-05  .743298104499D-02  .108033418655D-06  .515376719093D+04
     .935840000000D+05 -.651925802231D-07  .141335508037D+01  .558793544769D-07
     .963267783673D+00  .379437500000D+03  .170584147800D+00 -.845035199108D-08
     .300012496725D-10  .100000000000D+01  .221200000000D+04  .000000000000D+00
     .240000000000D+01  .000000000000D+00  .512227416039D-08  .750000000000D+02
     .864000000000D+05  .400000000000D+01
24 22  5 30 20  0  0.0  .231104437262D-03 -.761701812735D-11  .000000000000D+00
     .280000000000D+02 -.120625000000D+02  .493163399378D-08  .292553412008D+01
    -.670552253723D-06  .124981332337D-01  .796094536781D-05  .515368301964D+04
     .158400000000D+06  .651925802231D-07 -.739114884930D+00 -.134110450745D-06
     .934220009145D+00  .210062500000D+03  .816342609752D+00 -.790461497323D-08
    -.517521556850D-09  .100000000000D+01  .221200000000D+04  .000000000000D+00
     .240000000000D+01  .000000000000D+00  .279396772385D-08  .280000000000D+02
     .151200000000D+06  .400000000000D+01
27 22  5 30 20  0  0.0  .210277736187D-03  .466116034659D-11  .000000000000D+00
     .140000000000D+02  .400312500000D+02  .449161566525D-08 -.145023584202D+01
     .212714076042D-05  .105344902258D-01  .296160578728D-06  .515365695381D+04
     .158400000000D+06  .184401869774D-06  .143311297985D+01 -.521540641785D-07
     .972006660870D+00  .374656250000D+03  .685426277110D+00 -.824105755884D-08
     .294655130712D-09  .100000000000D+01  .221200000000D+04  .000000000000D+00
     .240000000000D+01  .000000000000D+00  .186264514923D-08  .140000000000D+02
     .151200000000D+06  .400000000000D+01
17 22  5 30 20  0  0.0  .619056168944D-03  .454747350886D-11  .000000000000D+00
     .200000000000D+02  .237187500000D+02  .447661504041D-08 -.148728263902D+01
     .169314444065D-05  .135183916427D-01  .603497028351D-06  .515355696106D+04
     .158400000000D+06 -.819563865662D-07  .149635050747D+01  .292435288429D-06
     .978477886309D+00  .380062500000D+03 -.149284837376D+01 -.827677333226D-08
     .166792661870D-09  .100000000000D+01  .221200000000D+04  .000000000000D+00
     .340000000000D+01  .000000000000D+00 -.111758708954D-07  .200000000000D+02
     .151200000000D+06  .400000000000D+01
15 22  5 30 20  0  0.0 -.571152195334D-04  .295585778076D-11  .000000000000D+00
     .500000000000D+02  .121875000000D+02  .538701010488D-08 -.245067514962D+01
     .651925802231D-06  .140681199264D-01  .521913170815D-05  .515378406715D+04
     .158400000000D+06  .145286321640D-06 -.183557512330D+01 -.689178705215D-07
     .929927212092D+00  .261312500000D+03  .109558803491D+01 -.810140888477D-08
     .311798701953D-09  .100000000000D+01  .221200000000D+04  .000000000000D+00
     .240000000000D+01  .000000000000D+00 -.107102096081D-07  .500000000000D+02
     .151200000000D+06  .400000000000D+01
9  22  5 30 20  0  0.0 -.332562718540D-03  .318323145621D-11  .000000000000D+00
     .460000000000D+02  .116562500000D+02  .502020911186D-08 -.942546028917D+00
     .575557351112D-06  .208192539867D-02  .503286719322D-05  .515354779625D+04
     .158400000000D+06 -.242143869400D-07 -.172672363002D+01  .149011611938D-07
     .953940317478D+00  .277906250000D+03  .187196364374D+01 -.820855620503D-08
     .107504477993D-09  .100000000000D+01  .221200000000D+04  .000000000000D+00
     .240000000000D+01  .000000000000D+00  .139698386192D-08  .460000000000D+02
     .151200000000D+06  .400000000000D+01
31 22  5 30 20  0  0.0 -.179791357368D-03 -.159161572810D-11  .000000000000D+00
     .600000000000D+02 -.925000000000D+01  .450411618595D-08  .147503989747D+01
    -.290572643280D-06  .104269011645D-01  .888481736183D-05  .515374394989D+04
     .158400000000D+06 -.149011611938D-06 -.636127519253D+00  .335276126862D-07
     .955016107934D+00  .208687500000D+03  .393242997566D+00 -.789818613401D-08
    -.703957894100D-09  .100000000000D+01  .221200000000D+04  .000000000000D+00
     .240000000000D+01  .000000000000D+00 -.135041773319D-07  .600000000000D+02
     .151200000000D+06  .400000000000D+01
32 22  5 30 20  0  0.0 -.139354262501D-03 -.898126018001D-11  .000000000000D+00
     .520000000000D+02  .105625000000D+02  .493770567526D-08 -.786802993389D+00
     .469386577606D-06  .599509722088D-02  .523589551449D-05  .515359368896D+04
     .158400000000D+06  .651925802231D-07 -.171506300552D+01  .109896063805D-06
     .957742099243D+00  .278343750000D+03 -.228137912167D+01 -.819141263379D-08
     .842892252703D-10  .100000000000D+01  .221200000000D+04  .000000000000D+00
     .240000000000D+01  .000000000000D+00  .465661287308D-09  .520000000000D+02
     .151200000000D+06  .400000000000D+01
26 22  5 30 20  0  0.0  .209157820791D-03  .250111042988D-11  .000000000000D+00
     .310000000000D+02  .101000000000D+03  .469055252320D-08  .361119347076D+00
     .538304448128D-05  .693206640426D-02  .924803316593D-05  .515376290321D+04
     .158400000000D+06  .987201929092D-07  .331217180114D+00  .137835741043D-06
     .937907398031D+00  .189468750000D+03  .390259883776D+00 -.811355224773D-08
     .607168148133D-10  .100000000000D+01  .221200000000D+04  .000000000000D+00
     .240000000000D+01  .000000000000D+00  .698491930962D-08  .310000000000D+02
     .151200000000D+06  .400000000000D+01
23 22  5 30 20  0  0.0 -.251675955951D-04 -.227373675443D-11  .000000000000D+00
     .148000000000D+03 -.483750000000D+02  .420267505829D-08  .187616900218D+01
    -.236369669437D-05  .218186201528D-02  .103674829006D-04  .515371440125D+04
     .158400000000D+06  .968575477600D-07 -.278242615293D+01  .912696123123D-07
     .969075919548D+00  .184750000000D+03  .299454295608D+01 -.769032033271D-08
     .309298597814D-09  .100000000000D+01  .221200000000D+04  .000000000000D+00
     .240000000000D+01  .000000000000D+00 -.838190317154D-08  .148000000000D+03
     .151200000000D+06  .400000000000D+01
21 22  5 30 20  0  0.0  .161252450198D-03  .113686837722D-12  .000000000000D+00
     .131000000000D+03 -.110906250000D+03  .466019411579D-08 -.133445882433D+01
    -.580027699471D-05  .242636573967D-01  .574067234993D-05  .515375183678D+04
     .158400000000D+06 -.521540641785D-06  .240170697322D+01 -.169500708580D-06
     .960284905412D+00  .275218750000D+03 -.944349514325D+00 -.846749556232D-08
    -.553594488004D-10  .100000000000D+01  .221200000000D+04  .000000000000D+00
     .340000000000D+01  .000000000000D+00 -.102445483208D-07  .131000000000D+03
     .151200000000D+06  .400000000000D+01
19 22  5 30 20  0  0.0  .164223369211D-03  .500222085975D-11  .000000000000D+00
     .850000000000D+02  .103437500000D+02  .455018953366D-08  .862833315374D+00
     .419095158577D-06  .926138809882D-02  .482425093651D-06  .515369975662D+04
     .158400000000D+06 -.428408384323D-07  .154116547262D+01 -.221654772758D-06
     .977304054008D+00  .379375000000D+03  .207328930043D+01 -.839856411962D-08
     .146077513286D-09  .100000000000D+01  .221200000000D+04  .000000000000D+00
     .240000000000D+01  .000000000000D+00 -.158324837685D-07  .850000000000D+02
     .151200000000D+06  .400000000000D+01
20 22  5 30 20  0  0.0  .513631850481D-03 -.102318153949D-11  .000000000000D+00
     .790000000000D+02 -.650312500000D+02  .467448042516D-08 -.261264166980D+01
    -.339373946190D-05  .477939005941D-02  .108294188976D-04  .515358922386D+04
     .158400000000D+06 -.152736902237D-06 -.291195836904D+01 -.502914190292D-07
     .943571402828D+00  .156718750000D+03 -.312143488009D+01 -.788497129785D-08
     .245724521127D-09  .100000000000D+01  .221200000000D+04  .000000000000D+00
     .240000000000D+01  .000000000000D+00 -.838190317154D-08  .790000000000D+02
     .151200000000D+06  .400000000000D+01
22 22  5 30 20  0  0.0  .267699826509D-03  .625277607469D-11  .000000000000D+00
     .880000000000D+02  .753125000000D+01  .478734226916D-08 -.161075675629D+01
     .465661287308D-06  .133957240032D-01  .495836138725D-05  .515368653107D+04
     .158400000000D+06  .279396772385D-06 -.162450258180D+01  .210478901863D-06
     .960955877178D+00  .284968750000D+03 -.184961168329D+01 -.798676125209D-08
     .500020827875D-11  .100000000000D+01  .221200000000D+04  .000000000000D+00
     .240000000000D+01  .000000000000D+00 -.838190317154D-08  .880000000000D+02
     .151200000000D+06  .400000000000D+01
25 22  5 30 20  0  0.0  .331301707774D-03  .477484718431D-11  .000000000000D+00
     .760000000000D+02  .116500000000D+03  .424517682865D-08  .103656907441D+01
     .592879951000D-05  .104908129433D-01  .940822064877D-05  .515367556381D+04
     .158400000000D+06 -.128522515297D-06  .380132224799D+00  .298023223877D-07
     .957065046126D+00  .193406250000D+03  .100578887425D+01 -.803962059675D-08
     .107147320259D-11  .100000000000D+01  .221200000000D+04  .000000000000D+00
     .240000000000D+01  .000000000000D+00  .558793544769D-08  .760000000000D+02
     .151200000000D+06  .400000000000D+01
14 22  5 30 20  0  0.0 -.110282562673D-03 -.113686837722D-11  .000000000000D+00
     .500000000000D+02  .122281250000D+03  .437732519031D-08  .130898170514D+01
     .627152621746D-05  .193671532907D-02  .817328691483D-05  .515366632843D+04
     .158400000000D+06 -.298023223877D-07  .425165109148D+00  .596046447754D-07
     .952955984270D+00  .218750000000D+03  .311718653380D+01 -.790675791963D-08
     .123576576032D-09  .100000000000D+01  .221200000000D+04  .000000000000D+00
     .240000000000D+01  .000000000000D+00 -.791624188423D-08  .562000000000D+03
     .151200000000D+06  .400000000000D+01
